RS27S UTMN-2
1 57203U 23091AP  26163.81526302  .00013715  00000+0  44633-3 0  9996
2 57203  97.5096 230.9756 0009441  96.7900 263.4416 15.31947365163871
METEOR-M2-4
1 59051U 24039A   26163.89256810 -.00000006  00000+0  16973-4 0  9991
2 59051  98.7015 123.2446 0007054 173.0118 187.1160 14.22429124118657
SONATE-2
1 59112U 24043Q   26162.93769449  .00035538  00000+0  46836-3 0  9992
2 59112  97.5519 313.0138 0006785 213.3126 146.7703 15.58325832127076
GRBBeta
1 60237U 24128C   26163.77333337  .00003691  00000+0  25772-3 0  9993
2 60237  61.9896 231.7519 0041192 133.7037 226.7481 15.06613019105602
Curium One
1 60242U 24128H   26163.27783930  .00006940  00000+0  40191-3 0  9994
2 60242  61.9782 223.1618 0040531 129.5442 230.9246 15.12452442105712
ROBUSTA-3A
1 60243U 24128J   26163.30603974  .00007007  00000+0  41454-3 0  9996
2 60243  61.9860 225.5052 0041864 127.2589 233.2336 15.11623087105681
CatSat
1 60246U 24125J   26163.83761934  .00060479  00000+0  79048-3 0  9997
2 60246  97.2090  16.2842 0022239 194.7438 165.3173 15.58156553106719
ARTIC WX
1 60543U 24149CD  26163.78798419  .00000784  00000+0  87297-4 0  9994
2 60543  97.6802 234.3793 0003585 112.4408 247.7190 14.89800181 98641
ARCTICSAT 1
1 61762U 24199AD  26163.74831264  .03081261  23921-5  12507-2 0  9990
2 61762  97.2825  47.8037 0009254 217.8157 142.2485 16.23353750137414
HYPERVIEW-1G (RS66S)
1 61772U 24199AP  26163.80658323  .00129978  00000+0  87653-3 0  9998
2 61772  97.2886  43.3086 0002784 241.6635 118.4350 15.74721372133982
AO-123
1 61781U 24199AY  26163.79918727  .00007874  00000+0  22915-3 0  9993
2 61781  97.3012  32.5101 0012690 331.4870  28.5678 15.35615276133254
SAMSAT-IONOSPHERE
1 61784U 24199BB  26163.81891499  .00048166  00000+0  65919-3 0  9995
2 61784  97.2960  39.6052 0005919 299.5419  60.5246 15.57256179136886
LASARsat
1 62391U 24247Q   26163.06628026  .00032134  00000+0  64660-3 0  9995
2 62391  44.9753 290.9829 0008403 302.5447  57.4631 15.46059259 82523
CROCUBE
1 62394U 24247T   26163.26391119  .00040736  00000+0  76592-3 0  9994
2 62394  44.9724 287.2870 0008260 307.3288  52.6849 15.47921042 82589
JINJUSat 1B
1 63210U 25052A   26163.18653837  .00018357  00000+0  57106-3 0  9990
2 63210  97.4019  59.9354 0005437 102.0175 258.1677 15.33350797 69334
NUSHSAT 1
1 63211U 25052B   26163.23821073  .00022200  00000+0  63874-3 0  9997
2 63211  97.3995  60.5359 0005194 103.5392 256.6431 15.35782531 69380
TEVEL2-4
1 63213U 25052D   26163.22634011  .00019646  00000+0  59033-3 0  9994
2 63213  97.3917  59.6110 0004731 112.7549 247.4195 15.34441293 69350
TEVEL2-5
1 63214U 25052E   26163.18106670  .00020078  00000+0  60654-3 0  9997
2 63214  97.3921  59.5143 0004629 114.2395 245.9332 15.34269187 69348
TEVEL2-6
1 63215U 25052F   26163.19328240  .00020179  00000+0  61028-3 0  9996
2 63215  97.3921  59.5115 0004505 113.2672 246.9046 15.34232330 69341
TEVEL2-1
1 63217U 25052H   26162.95960718  .00016082  00000+0  49545-3 0  9991
2 63217  97.3891  58.9077 0004509 123.4340 236.7334 15.33693147 69295
TEVEL2-3
1 63218U 25052J   26163.21540340  .00019135  00000+0  58756-3 0  9993
2 63218  97.3892  59.1848 0004498 123.1530 237.0145 15.33760310 69337
TEVEL2-2
1 63219U 25052K   26162.95994952  .00016262  00000+0  50083-3 0  9999
2 63219  97.3890  58.9106 0004449 123.8478 236.3189 15.33701780 69295
TEVEL2-9
1 63237U 25052AD  26163.19195162  .00017823  00000+0  58280-3 0  9993
2 63237  97.3947  58.5267 0007288 144.2630 215.9100 15.31748226 69260
TEVEL2-7
1 63238U 25052AE  26162.64384617  .00015266  00000+0  50453-3 0  9991
2 63238  97.3956  57.8996 0007384 146.6025 213.5683 15.31438086 69173
TEVEL2-8
1 63239U 25052AF  26163.17476619  .00016802  00000+0  55488-3 0  9995
2 63239  97.3951  58.4063 0007475 146.0802 214.0919 15.31439720 69252
PARUS-T2
1 64560U 25135AJ  26163.85802875  .00005134  00000+0  46765-3 0  9991
2 64560  97.7726 278.5757 0000784 108.6189 251.5117 14.95588516 53264
Geoscan-1
1 64880U 25155E   26163.86950751  .00011795  00000+0  40000-3 0  9992
2 64880  97.4543 132.5488 0007730 176.2162 183.9139 15.30663597 80112
239Alferov
1 64881U 25155F   26163.84528455  .00015107  00000+0  47817-3 0  9997
2 64881  97.4544 133.0712 0007445 172.9179 187.2169 15.32829387 80140
Geoscan-2
1 64890U 25155Q   26163.86395591  .00011557  00000+0  38877-3 0  9993
2 64890  97.4542 132.6941 0007592 162.7355 197.4145 15.30934292 80128
Geoscan-4
1 64892U 25155S   26163.81983536  .00014790  00000+0  46152-3 0  9999
2 64892  97.4540 133.2287 0006173 176.3238 183.8051 15.33298065 80155
Geoscan-3
1 64893U 25155T   26163.82619529  .00017964  00000+0  52626-3 0  9998
2 64893  97.4529 133.6524 0006091 174.1726 185.9589 15.35256527 80189
SPIRONE
1 66657U 25274H   26163.76619764  .00002414  00000+0  23425-3 0  9993
2 66657  97.7484  93.1208 0013108  35.9710 324.2389 14.93530918 29568
K-HERO
1 66660U 25274L   26163.77202600  .00001886  00000+0  18215-3 0  9998
2 66660  97.7493  93.2844 0015074  39.0130 321.2175 14.93949021 29574
SNUGLITE-III DURI
1 66661U 25274M   26163.75992424  .00002042  00000+0  19658-3 0  9994
2 66661  97.7489  93.2926 0015641  39.4955 320.7402 14.93989044 29576
GALAPAGOS
1 67279U 25313AH  26163.73870291  .00007737  00000+0  33322-3 0  9999
2 67279  97.3930 238.4185 0014428  26.0491 334.1468 15.22775271 25270
Lobachevsky
1 67282U 25313AL  26163.74821772  .00006155  00000+0  26432-3 0  9991
2 67282  97.3933 238.5472 0010931  23.6368 336.5369 15.22997916 25287
SAKHACUBE-CHOLBON
1 67290U 25313AU  26163.17296909  .00009791  00000+0  39694-3 0  9998
2 67290  97.3937 238.2703 0009393  23.1321 337.0338 15.24801692 25210
RS95S (QMR-KWT-2)
1 67291U 25313AV  26163.16578942  .00015119  00000+0  58665-3 0  9998
2 67291  97.3937 238.4284 0008727  21.5421 338.6183 15.26166188 25222
KNACKSAT-2
1 67683U 98067XZ  26162.71234266  .00046941  00000+0  58268-3 0  9993
2 67683  51.6308 322.0071 0009845 191.1847 168.8928 15.59478995 19427
Ten-Koh2
1 68261U 25241B   26163.75309573  .00006733  00000+0  28882-3 0  9993
2 68261  51.6688 340.7302 0006220 129.1922 230.9609 15.23854656 14238
JACK-002
1 68417U 26067B   26163.81476851  .00007021  00000+0  33538-3 0  9999
2 68417  97.4562 122.4593 0000705  13.0731 347.0521 15.19343900 11283
DISCO 2
1 68431U 26067R   26163.83500144  .00009034  00000+0  43460-3 0  9991
2 68431  97.4593 122.4683 0003221  50.2992 309.8526 15.19009759 11283
HADES-SA (SpinnyONE)
1 68446U 26067AG  26163.80818705  .00019788  00000+0  94817-3 0  9998
2 68446  97.4393 122.1700 0009698  93.0154 267.2191 15.18919379 11263
PARUS-6U1
1 68456U 26067AS  26163.83640427  .00006159  00000+0  31062-3 0  9997
2 68456  97.4546 122.2667 0007554  82.8981 277.3112 15.17472515 11271
SAL-E
1 68458U 26067AU  26163.83250422  .00008212  00000+0  41026-3 0  9994
2 68458  97.4470 122.2017 0007943  90.1085 270.1059 15.17695892 11273
FSI-SAT 2
1 68792U 26088A   26163.17242702  .00004994  00000+0  33857-3 0  9993
2 68792  97.5048 312.5581 0015560 122.6202 237.6530 15.06792592  7531
OrigamiSat 2
1 68795U 26088D   26162.39189273  .00002808  00000+0  18308-3 0  9998
2 68795  97.4996 311.9168 0016255  99.2249 261.0819 15.08597160  7426
ARICA 2
1 68796U 26088E   26162.65547729  .00003522  00000+0  22986-3 0  9993
2 68796  97.5045 312.1677 0017186  97.6089 262.7092 15.08382175  7462
WASEDA-SAT-ZERO-II
1 68797U 26088F   26162.98359818  .00005115  00000+0  33016-3 0  9996
2 68797  97.5042 312.4956 0016881  96.5831 263.7320 15.08581239  7510
MANGARO-II-Piscus
1 68798U 26088G   26162.90825429  .00003831  00000+0  24688-3 0  9993
2 68798  97.5054 312.4489 0020445  99.3351 261.0191 15.08743852  7501
Delfi-N3xt
1 39428U 13066N   26163.82755483  .00004855  00000-0  42586-3 0  9992
2 39428  97.8343  84.1432 0073383 220.4660 139.1090 14.95040596673976
IO-86
1 40931U          25360.30710720  .00000000  00000-0  12800-3 0    00
2 40931   6.0006 332.5373 0012733 338.8432   8.1437 14.79075515    01
LILIUM-4
1 71922C 26067AC  26089.50133053 -.00014632  00000 0 -74472-3 0    04
2 71922  97.4497  49.1617 0004341   5.9603 355.7042 15.16896692    16
TRANSIT 5B-5
1 00965U 64083D   26140.22132175  .00000058  00000-0  68520-4 0  9995
2 00965  90.0785 202.8139 0041495   2.6876  57.4259 13.57009955 39826
PARUS-T1
1 98707U 25009N   25063.20000000  .00000000  00000-0  00000-0 0    08
2 98707  97.4430 144.9801 0003811 149.1702 136.3402 15.16239457    06
T.MicroSat-1
1 98515U 25276Y   25347.12519372 +.00009703 +00000+0 +47621-3 0 00218
2 98515  97.4377  58.8963 0002080  99.7173 260.4296 15.18293117002180
ARICA-2
1 98329U 27001A   26113.71443610  .00000000  00000-0  29916-3 0    03
2 98329  97.5133 264.2063 0010953 206.3608 281.8662 15.08387874    01
CORIOLIS
1 27640U 03001A   26164.95578758  .00000088  00000+0  61925-4 0  9998
2 27640  98.7125 171.8899 0013209 218.5680 141.4554 14.19943995213768
